{
    "links": {
        "self": "http://www.neowsapp.com/rest/v1/neo/3794970?api_key=iIulBulltgU6a56xZRHN4H3l9WmuAYTsLGpBGhQ2"
    },
    "id": "3794970",
    "neo_reference_id": "3794970",
    "name": "(2017 YE1)",
    "designation": "2017 YE1",
    "nasa_jpl_url": "http://ssd.jpl.nasa.gov/sbdb.cgi?sstr=3794970",
    "absolute_magnitude_h": 24.9,
    "estimated_diameter": {
        "kilometers": {
            "estimated_diameter_min": 0.0278326768,
            "estimated_diameter_max": 0.0622357573
        },
        "meters": {
            "estimated_diameter_min": 27.8326768072,
            "estimated_diameter_max": 62.2357573367
        },
        "miles": {
            "estimated_diameter_min": 0.0172944182,
            "estimated_diameter_max": 0.0386714948
        },
        "feet": {
            "estimated_diameter_min": 91.3145593761,
            "estimated_diameter_max": 204.1855621004
        }
    },
    "is_potentially_hazardous_asteroid": false,
    "close_approach_data": [
        {
            "close_approach_date": "2015-10-04",
            "close_approach_date_full": "2015-Oct-04 00:56",
            "epoch_date_close_approach": 1443920160000,
            "relative_velocity": {
                "kilometers_per_second": "17.559160489",
                "kilometers_per_hour": "63212.9777603208",
                "miles_per_hour": "39278.0860977949"
            },
            "miss_distance": {
                "astronomical": "0.4234745439",
                "lunar": "164.7315975771",
                "kilometers": "63350889.766661493",
                "miles": "39364417.5487068834"
            },
            "orbiting_body": "Earth"
        },
        {
            "close_approach_date": "2017-12-17",
            "close_approach_date_full": "2017-Dec-17 06:33",
            "epoch_date_close_approach": 1513492380000,
            "relative_velocity": {
                "kilometers_per_second": "6.177479218",
                "kilometers_per_hour": "22238.925184641",
                "miles_per_hour": "13818.4032626454"
            },
            "miss_distance": {
                "astronomical": "0.0418446105",
                "lunar": "16.2775534845",
                "kilometers": "6259864.601779635",
                "miles": "3889699.495783563"
            },
            "orbiting_body": "Earth"
        },
        {
            "close_approach_date": "2065-10-27",
            "close_approach_date_full": "2065-Oct-27 05:01",
            "epoch_date_close_approach": 3023845260000,
            "relative_velocity": {
                "kilometers_per_second": "8.6775067502",
                "kilometers_per_hour": "31239.0243005699",
                "miles_per_hour": "19410.7148494291"
            },
            "miss_distance": {
                "astronomical": "0.1496715912",
                "lunar": "58.2222489768",
                "kilometers": "22390551.243030744",
                "miles": "13912843.3952985072"
            },
            "orbiting_body": "Earth"
        },
        {
            "close_approach_date": "2068-01-16",
            "close_approach_date_full": "2068-Jan-16 12:28",
            "epoch_date_close_approach": 3093942480000,
            "relative_velocity": {
                "kilometers_per_second": "15.6537050957",
                "kilometers_per_hour": "56353.3383445834",
                "miles_per_hour": "35015.7729286107"
            },
            "miss_distance": {
                "astronomical": "0.3412743427",
                "lunar": "132.7557193103",
                "kilometers": "51053914.753570049",
                "miles": "31723431.5927987162"
            },
            "orbiting_body": "Earth"
        }
    ],
    "orbital_data": {
        "orbit_id": "5",
        "orbit_determination_date": "2018-02-10 07:09:29",
        "first_observation_date": "2017-11-20",
        "last_observation_date": "2018-01-14",
        "data_arc_in_days": 55,
        "observations_used": 59,
        "orbit_uncertainty": "7",
        "minimum_orbit_intersection": ".0388266",
        "jupiter_tisserand_invariant": "4.219",
        "epoch_osculation": "2459000.5",
        "eccentricity": ".3845473166673627",
        "semi_major_axis": "1.631667524247676",
        "inclination": "5.081097246887242",
        "ascending_node_longitude": "98.36391339686746",
        "orbital_period": "761.282648708022",
        "perihelion_distance": "1.004214156104953",
        "perihelion_argument": "328.5682024721793",
        "aphelion_distance": "2.259120892390399",
        "perihelion_time": "2458851.003815110486",
        "mean_anomaly": "70.69467122567553",
        "mean_motion": ".4728861226654233",
        "equinox": "J2000",
        "orbit_class": {
            "orbit_class_type": "APO",
            "orbit_class_description": "Near-Earth asteroid orbits which cross the Earth’s orbit similar to that of 1862 Apollo",
            "orbit_class_range": "a (semi-major axis) > 1.0 AU; q (perihelion) < 1.017 AU"
        }
    },
    "is_sentry_object": false
}